start=new Date('2021-12-10T00:00:00.000Z').valueOf();
sats=[{"SEMIMAJOR_AXIS":"6925.378","MEAN_ELEMENT_THEORY":"SGP4","REF_FRAME":"TEME","OBJECT_NAME":"STARLINK-2103","INCLINATION":"53.0543","PERIAPSIS":"545.708","APOAPSIS":"548.779","OBJECT_TYPE":"PAYLOAD","MEAN_ANOMALY":"277.9172","MEAN_MOTION":"15.06390303","RCS_SIZE":"LARGE","COUNTRY_CODE":"US","MEAN_MOTION_DDOT":"0.0000000000000","RA_OF_ASC_NODE":"143.7378","FILE":"3236488","NORAD_CAT_ID":"47383","EPHEMERIS_TYPE":"0","PERIOD":"95.593","EPOCH":"2021-12-09T19:43:02.601696","TLE_LINE1":"1 47383U 21005AL  21343.82155789 -.00001269  00000-0 -66276-4 0  9992","SITE":"AFETR","TLE_LINE2":"2 47383  53.0543 143.7378 0002217  82.2069 277.9172 15.06390303 49850","REV_AT_EPOCH":"4985","CENTER_NAME":"EARTH","DECAY_DATE":null,"ARG_OF_PERICENTER":"82.2069","ECCENTRICITY":"0.00022170","MEAN_MOTION_DOT":"-0.00001269","TIME_SYSTEM":"UTC","LAUNCH_DATE":"2021-01-20","OBJECT_ID":"2021-005AL","BSTAR":"-0.00006627600000","CLASSIFICATION_TYPE":"U","GP_ID":"191397966","ELEMENT_SET_NO":"999"},{"FILE":"3236488","NORAD_CAT_ID":"47384","MEAN_MOTION_DDOT":"0.0000000000000","RA_OF_ASC_NODE":"153.9953","COUNTRY_CODE":"US","RCS_SIZE":"LARGE","MEAN_MOTION":"15.06389509","OBJECT_TYPE":"PAYLOAD","MEAN_ANOMALY":"271.3888","INCLINATION":"53.0547","OBJECT_NAME":"STARLINK-2104","PERIAPSIS":"545.681","APOAPSIS":"548.810","REF_FRAME":"TEME","SEMIMAJOR_AXIS":"6925.381","MEAN_ELEMENT_THEORY":"SGP4","BSTAR":"-0.00006694000000","CLASSIFICATION_TYPE":"U","GP_ID":"191398716","ELEMENT_SET_NO":"999","TIME_SYSTEM":"UTC","OBJECT_ID":"2021-005AM","LAUNCH_DATE":"2021-01-20","MEAN_MOTION_DOT":"-0.00001278","ARG_OF_PERICENTER":"88.7360","ECCENTRICITY":"0.00022590","TLE_LINE1":"1 47384U 21005AM  21343.76534407 -.00001278  00000-0 -66940-4 0  9992","SITE":"AFETR","REV_AT_EPOCH":"4970","TLE_LINE2":"2 47384  53.0547 153.9953 0002259  88.7360 271.3888 15.06389509 49700","CENTER_NAME":"EARTH","DECAY_DATE":null,"EPOCH":"2021-12-09T18:22:05.727648","PERIOD":"95.593","EPHEMERIS_TYPE":"0"},{"RCS_SIZE":"LARGE","MEAN_MOTION":"15.06400928","COUNTRY_CODE":"US","RA_OF_ASC_NODE":"153.6071","MEAN_MOTION_DDOT":"0.0000000000000","FILE":"3236488","NORAD_CAT_ID":"47385","MEAN_ELEMENT_THEORY":"SGP4","SEMIMAJOR_AXIS":"6925.346","REF_FRAME":"TEME","APOAPSIS":"548.719","PERIAPSIS":"545.702","OBJECT_NAME":"STARLINK-2105","INCLINATION":"53.0540","OBJECT_TYPE":"PAYLOAD","MEAN_ANOMALY":"267.7410","MEAN_MOTION_DOT":"0.00000272","OBJECT_ID":"2021-005AN","LAUNCH_DATE":"2021-01-20","TIME_SYSTEM":"UTC","ELEMENT_SET_NO":"999","GP_ID":"191398968","CLASSIFICATION_TYPE":"U","BSTAR":"0.00003720900000","EPHEMERIS_TYPE":"0","PERIOD":"95.592","EPOCH":"2021-12-09T20:25:32.518848","DECAY_DATE":null,"TLE_LINE2":"2 47385  53.0540 153.6071 0002178  92.3829 267.7410 15.06400928 49713","CENTER_NAME":"EARTH","REV_AT_EPOCH":"4971","TLE_LINE1":"1 47385U 21005AN  21343.85107082  .00000272  00000-0  37209-4 0  9995","SITE":"AFETR","ECCENTRICITY":"0.00021780","ARG_OF_PERICENTER":"92.3829"},{"EPHEMERIS_TYPE":"0","EPOCH":"2021-12-09T21:08:01.987584","PERIOD":"95.593","DECAY_DATE":null,"TLE_LINE1":"1 47386U 21005AP  21343.88057856  .00000305  00000-0  39410-4 0  9995","SITE":"AFETR","CENTER_NAME":"EARTH","TLE_LINE2":"2 47386  53.0552 153.4746 0002129  90.9362 269.1870 15.06391708 49728","REV_AT_EPOCH":"4972","ECCENTRICITY":"0.00021290","ARG_OF_PERICENTER":"90.9362","MEAN_MOTION_DOT":"0.00000305","LAUNCH_DATE":"2021-01-20","OBJECT_ID":"2021-005AP","TIME_SYSTEM":"UTC","GP_ID":"191399718","ELEMENT_SET_NO":"999","BSTAR":"0.00003941000000","CLASSIFICATION_TYPE":"U","MEAN_ELEMENT_THEORY":"SGP4","SEMIMAJOR_AXIS":"6925.374","REF_FRAME":"TEME","APOAPSIS":"548.713","PERIAPSIS":"545.765","OBJECT_NAME":"STARLINK-2106","INCLINATION":"53.0552","OBJECT_TYPE":"PAYLOAD","MEAN_ANOMALY":"269.1870","RCS_SIZE":"LARGE","MEAN_MOTION":"15.06391708","COUNTRY_CODE":"US","MEAN_MOTION_DDOT":"0.0000000000000","RA_OF_ASC_NODE":"153.4746","FILE":"3236488","NORAD_CAT_ID":"47386"},{"PERIOD":"95.593","EPOCH":"2021-12-09T20:48:06.775776","EPHEMERIS_TYPE":"0","ECCENTRICITY":"0.00023020","ARG_OF_PERICENTER":"80.3720","DECAY_DATE":null,"TLE_LINE2":"2 47387  53.0548 183.5387 0002302  80.3720 279.7529 15.06384935 49297","CENTER_NAME":"EARTH","REV_AT_EPOCH":"4929","SITE":"AFETR","TLE_LINE1":"1 47387U 21005AQ  21343.86674509  .00000366  00000-0  43506-4 0  9992","LAUNCH_DATE":"2021-01-20","OBJECT_ID":"2021-005AQ","TIME_SYSTEM":"UTC","MEAN_MOTION_DOT":"0.00000366","ELEMENT_SET_NO":"999","GP_ID":"191398466","CLASSIFICATION_TYPE":"U","BSTAR":"0.00004350600000","REF_FRAME":"TEME","MEAN_ELEMENT_THEORY":"SGP4","SEMIMAJOR_AXIS":"6925.395","OBJECT_TYPE":"PAYLOAD","MEAN_ANOMALY":"279.7529","PERIAPSIS":"545.666","APOAPSIS":"548.854","INCLINATION":"53.0548","OBJECT_NAME":"STARLINK-2108","COUNTRY_CODE":"US","RCS_SIZE":"LARGE","MEAN_MOTION":"15.06384935","FILE":"3236488","NORAD_CAT_ID":"47387","RA_OF_ASC_NODE":"183.5387","MEAN_MOTION_DDOT":"0.0000000000000"},{"MEAN_MOTION_DOT":"-0.00001311","LAUNCH_DATE":"2021-01-20","OBJECT_ID":"2021-005AR","TIME_SYSTEM":"UTC","GP_ID":"191398217","ELEMENT_SET_NO":"999","BSTAR":"-0.00006911900000","CLASSIFICATION_TYPE":"U","EPHEMERIS_TYPE":"0","EPOCH":"2021-12-09T19:33:47.778048","PERIOD":"95.593","DECAY_DATE":null,"SITE":"AFETR","TLE_LINE1":"1 47388U 21005AR  21343.81513632 -.00001311  00000-0 -69119-4 0  9998","CENTER_NAME":"EARTH","TLE_LINE2":"2 47388  53.0546 183.7711 0001867  80.3002 279.8197 15.06388073 49285","REV_AT_EPOCH":"4928","ECCENTRICITY":"0.00018670","ARG_OF_PERICENTER":"80.3002","MEAN_MOTION":"15.06388073","RCS_SIZE":"LARGE","COUNTRY_CODE":"US","MEAN_MOTION_DDOT":"0.0000000000000","RA_OF_ASC_NODE":"183.7711","FILE":"3236488","NORAD_CAT_ID":"47388","MEAN_ELEMENT_THEORY":"SGP4","SEMIMAJOR_AXIS":"6925.385","REF_FRAME":"TEME","PERIAPSIS":"545.957","APOAPSIS":"548.543","OBJECT_NAME":"STARLINK-2109","INCLINATION":"53.0546","MEAN_ANOMALY":"279.8197","OBJECT_TYPE":"PAYLOAD"},{"RCS_SIZE":"LARGE","MEAN_MOTION":"15.06398873","COUNTRY_CODE":"US","MEAN_MOTION_DDOT":"0.0000000000000","RA_OF_ASC_NODE":"163.8430","FILE":"3236488","NORAD_CAT_ID":"47389","MEAN_ELEMENT_THEORY":"SGP4","SEMIMAJOR_AXIS":"6925.352","REF_FRAME":"TEME","APOAPSIS":"548.689","PERIAPSIS":"545.745","OBJECT_NAME":"STARLINK-2110","INCLINATION":"53.0560","MEAN_ANOMALY":"268.1970","OBJECT_TYPE":"PAYLOAD","MEAN_MOTION_DOT":"0.00000503","LAUNCH_DATE":"2021-01-20","OBJECT_ID":"2021-005AS","TIME_SYSTEM":"UTC","GP_ID":"191399468","ELEMENT_SET_NO":"999","BSTAR":"0.00005266200000","CLASSIFICATION_TYPE":"U","EPHEMERIS_TYPE":"0","EPOCH":"2021-12-09T19:04:34.856832","PERIOD":"95.592","DECAY_DATE":null,"SITE":"AFETR","TLE_LINE1":"1 47389U 21005AS  21343.79484788  .00000503  00000-0  52662-4 0  9990","REV_AT_EPOCH":"4956","TLE_LINE2":"2 47389  53.0560 163.8430 0002126  91.9262 268.1970 15.06398873 49564","CENTER_NAME":"EARTH","ECCENTRICITY":"0.00021260","ARG_OF_PERICENTER":"91.9262"},{"CLASSIFICATION_TYPE":"U","BSTAR":"-0.00007953200000","ELEMENT_SET_NO":"999","GP_ID":"191399219","MEAN_MOTION_DOT":"-0.00001466","TIME_SYSTEM":"UTC","LAUNCH_DATE":"2021-01-20","OBJECT_ID":"2021-005AT","REV_AT_EPOCH":"4929","TLE_LINE2":"2 47390  53.0543 183.5750 0001826  84.7536 275.3661 15.06386777 49298","CENTER_NAME":"EARTH","SITE":"AFETR","TLE_LINE1":"1 47390U 21005AT  21343.85567102 -.00001466  00000-0 -79532-4 0  9997","DECAY_DATE":null,"ARG_OF_PERICENTER":"84.7536","ECCENTRICITY":"0.00018260","EPHEMERIS_TYPE":"0","EPOCH":"2021-12-09T20:32:09.976128","PERIOD":"95.593","RA_OF_ASC_NODE":"183.5750","MEAN_MOTION_DDOT":"0.0000000000000","FILE":"3236488","NORAD_CAT_ID":"47390","RCS_SIZE":"LARGE","MEAN_MOTION":"15.06386777","COUNTRY_CODE":"US","INCLINATION":"53.0543","OBJECT_NAME":"STARLINK-2111","PERIAPSIS":"545.990","APOAPSIS":"548.519","OBJECT_TYPE":"PAYLOAD","MEAN_ANOMALY":"275.3661","SEMIMAJOR_AXIS":"6925.389","MEAN_ELEMENT_THEORY":"SGP4","REF_FRAME":"TEME"},{"REF_FRAME":"TEME","MEAN_ELEMENT_THEORY":"SGP4","SEMIMAJOR_AXIS":"6925.348","MEAN_ANOMALY":"271.7595","OBJECT_TYPE":"PAYLOAD","PERIAPSIS":"545.713","APOAPSIS":"548.713","OBJECT_NAME":"STARLINK-2112","INCLINATION":"53.0534","COUNTRY_CODE":"US","RCS_SIZE":"LARGE","MEAN_MOTION":"15.06400240","FILE":"3236488","NORAD_CAT_ID":"47391","RA_OF_ASC_NODE":"153.5304","MEAN_MOTION_DDOT":"0.0000000000000","EPOCH":"2021-12-09T20:45:23.787360","PERIOD":"95.592","EPHEMERIS_TYPE":"0","ECCENTRICITY":"0.00021660","ARG_OF_PERICENTER":"88.3642","DECAY_DATE":null,"TLE_LINE2":"2 47391  53.0534 153.5304 0002166  88.3642 271.7595 15.06400240 49712","REV_AT_EPOCH":"4971","CENTER_NAME":"EARTH","SITE":"AFETR","TLE_LINE1":"1 47391U 21005AU  21343.86485865  .00000414  00000-0  46717-4 0  9993","LAUNCH_DATE":"2021-01-20","OBJECT_ID":"2021-005AU","TIME_SYSTEM":"UTC","MEAN_MOTION_DOT":"0.00000414","ELEMENT_SET_NO":"999","GP_ID":"191397967","CLASSIFICATION_TYPE":"U","BSTAR":"0.00004671700000"},{"OBJECT_ID":"2021-005AV","LAUNCH_DATE":"2021-01-20","TIME_SYSTEM":"UTC","MEAN_MOTION_DOT":"-0.00001640","ELEMENT_SET_NO":"999","GP_ID":"191398717","CLASSIFICATION_TYPE":"U","BSTAR":"-0.00009122100000","PERIOD":"95.593","EPOCH":"2021-12-09T20:46:45.897600","EPHEMERIS_TYPE":"0","ECCENTRICITY":"0.00022280","ARG_OF_PERICENTER":"94.1633","DECAY_DATE":null,"TLE_LINE2":"2 47392  53.0545 153.5249 0002228  94.1633 265.9610 15.06390473 49716","REV_AT_EPOCH":"4971","CENTER_NAME":"EARTH","SITE":"AFETR","TLE_LINE1":"1 47392U 21005AV  21343.86580900 -.00001640  00000-0 -91221-4 0  9994","COUNTRY_CODE":"US","MEAN_MOTION":"15.06390473","RCS_SIZE":"LARGE","NORAD_CAT_ID":"47392","FILE":"3236488","RA_OF_ASC_NODE":"153.5249","MEAN_MOTION_DDOT":"0.0000000000000","REF_FRAME":"TEME","MEAN_ELEMENT_THEORY":"SGP4","SEMIMAJOR_AXIS":"6925.378","MEAN_ANOMALY":"265.9610","OBJECT_TYPE":"PAYLOAD","APOAPSIS":"548.786","PERIAPSIS":"545.700","INCLINATION":"53.0545","OBJECT_NAME":"STARLINK-2113"}];
